STARLINK-1893           
1 46786U 20074AZ  26069.00003471  .00161462  00000+0  29022-2 0  9998
2 46786  53.0504 262.7095 0002133  48.1407 339.7407 15.48803791  5907
FLOCK 4Q-26             
1 58284U 23174AE  26068.73049739  .00032914  00000+0  56917-3 0  9997
2 58284  97.3894 158.0869 0007334 149.9195 210.2479 15.50866575130389
