[{"OBJECT_NAME":"STARLINK-1893","OBJECT_ID":"2020-074AZ","EPOCH":"2026-03-10T00:00:02.999808","MEAN_MOTION":15.48803791,"ECCENTRICITY":0.00021326,"INCLINATION":53.0504,"RA_OF_ASC_NODE":262.7095,"ARG_OF_PERICENTER":48.1407,"MEAN_ANOMALY":339.7407,"EPHEMERIS_TYPE":0,"CLASSIFICATION_TYPE":"U","NORAD_CAT_ID":46786,"ELEMENT_SET_NO":999,"REV_AT_EPOCH":590,"BSTAR":0.0029021764,"MEAN_MOTION_DOT":0.00161462,"MEAN_MOTION_DDOT":0},{"OBJECT_NAME":"FLOCK 4Q-26","OBJECT_ID":"2023-174AE","EPOCH":"2026-03-09T17:31:54.974496","MEAN_MOTION":15.50866575,"ECCENTRICITY":0.00073348,"INCLINATION":97.3894,"RA_OF_ASC_NODE":158.0869,"ARG_OF_PERICENTER":149.9195,"MEAN_ANOMALY":210.2479,"EPHEMERIS_TYPE":0,"CLASSIFICATION_TYPE":"U","NORAD_CAT_ID":58284,"ELEMENT_SET_NO":999,"REV_AT_EPOCH":13038,"BSTAR":0.00056917098,"MEAN_MOTION_DOT":0.00032914,"MEAN_MOTION_DDOT":0}]
